{
  "norad_id": 66140,
  "name": "STARLINK-35625",
  "history": [
    {
      "epoch": "2026-04-16T18:50:22.398144Z",
      "apogee_km": 475.95053729663687,
      "perigee_km": 474.46473217982475,
      "latitude_deg": 7.051944554461033e-06,
      "longitude_deg": 95.10816800453259,
      "height_km": 476.0946696421319,
      "semi_major_axis_km": 6853.3446347382305,
      "eccentricity": 0.0001084,
      "inclination_deg": 53.1593,
      "raan_deg": 222.6292,
      "arg_perigee_deg": 89.1348,
      "mean_anomaly_deg": 270.9777,
      "mean_motion_rev_day": 15.3020249
    },
    {
      "epoch": "2026-04-17T13:39:00.701568Z",
      "apogee_km": 475.96789373190313,
      "perigee_km": 474.4469995323061,
      "latitude_deg": 2.265749493857996e-05,
      "longitude_deg": 168.5364575680608,
      "height_km": 476.144816833859,
      "semi_major_axis_km": 6853.344446632104,
      "eccentricity": 0.00011096,
      "inclination_deg": 53.1603,
      "raan_deg": 218.9896,
      "arg_perigee_deg": 92.9432,
      "mean_anomaly_deg": 267.1696,
      "mean_motion_rev_day": 15.30202553
    },
    {
      "epoch": "2026-04-18T14:43:51.545856Z",
      "apogee_km": 475.76331453505827,
      "perigee_km": 474.5776923369631,
      "latitude_deg": -4.679390316844035e-05,
      "longitude_deg": 146.44042367118575,
      "height_km": 476.11461915451383,
      "semi_major_axis_km": 6853.30750343601,
      "eccentricity": 8.65e-05,
      "inclination_deg": 53.1609,
      "raan_deg": 214.1355,
      "arg_perigee_deg": 94.3908,
      "mean_anomaly_deg": 265.7191,
      "mean_motion_rev_day": 15.30214926
    },
    {
      "epoch": "2026-04-19T14:14:39.237216Z",
      "apogee_km": 475.8543626972314,
      "perigee_km": 474.5261878712827,
      "latitude_deg": -5.039695556607523e-05,
      "longitude_deg": 148.22635146974633,
      "height_km": 476.1844087521093,
      "semi_major_axis_km": 6853.327275284257,
      "eccentricity": 9.69e-05,
      "inclination_deg": 53.1597,
      "raan_deg": 209.5858,
      "arg_perigee_deg": 98.2823,
      "mean_anomaly_deg": 261.8287,
      "mean_motion_rev_day": 15.30208304
    },
    {
      "epoch": "2026-04-19T23:38:58.809696Z",
      "apogee_km": 475.98947976694035,
      "perigee_km": 474.4843417886541,
      "latitude_deg": 3.7860275121055766e-05,
      "longitude_deg": 4.936497168091185,
      "height_km": 476.12047940649654,
      "semi_major_axis_km": 6853.3739107777965,
      "eccentricity": 0.00010981,
      "inclination_deg": 53.1606,
      "raan_deg": 207.7637,
      "arg_perigee_deg": 88.8734,
      "mean_anomaly_deg": 271.2393,
      "mean_motion_rev_day": 15.30192685
    },
    {
      "epoch": "2026-04-21T13:16:15.567744Z",
      "apogee_km": 475.86403687938764,
      "perigee_km": 474.4961147910499,
      "latitude_deg": -3.817375021311196e-06,
      "longitude_deg": 151.79148445897454,
      "height_km": 476.0676662952039,
      "semi_major_axis_km": 6853.317075835218,
      "eccentricity": 9.98e-05,
      "inclination_deg": 53.1582,
      "raan_deg": 200.4836,
      "arg_perigee_deg": 89.1066,
      "mean_anomaly_deg": 271.0049,
      "mean_motion_rev_day": 15.3021172
    },
    {
      "epoch": "2026-04-22T11:13:00.480288Z",
      "apogee_km": 475.90412387027027,
      "perigee_km": 474.5515437866652,
      "latitude_deg": -1.5104244214082436e-05,
      "longitude_deg": 177.4565557909417,
      "height_km": 475.95843855397976,
      "semi_major_axis_km": 6853.364833828467,
      "eccentricity": 9.868e-05,
      "inclination_deg": 53.1569,
      "raan_deg": 196.2371,
      "arg_perigee_deg": 75.6544,
      "mean_anomaly_deg": 284.4566,
      "mean_motion_rev_day": 15.30195725
    },
    {
      "epoch": "2026-04-23T12:17:51.660672Z",
      "apogee_km": 475.9399028355929,
      "perigee_km": 474.4976826425682,
      "latitude_deg": 7.2026125749157675e-06,
      "longitude_deg": 155.35518332562714,
      "height_km": 475.3975243043042,
      "semi_major_axis_km": 6853.35579273908,
      "eccentricity": 0.00010522,
      "inclination_deg": 53.1571,
      "raan_deg": 191.379,
      "arg_perigee_deg": 2.0944,
      "mean_anomaly_deg": 358.0061,
      "mean_motion_rev_day": 15.30198753
    },
    {
      "epoch": "2026-04-24T11:48:39.534336Z",
      "apogee_km": 475.8050860534713,
      "perigee_km": 474.6359032648825,
      "latitude_deg": -2.2257994699984236e-05,
      "longitude_deg": 157.1423296173226,
      "height_km": 476.0891683194674,
      "semi_major_axis_km": 6853.357494659176,
      "eccentricity": 8.53e-05,
      "inclination_deg": 53.1556,
      "raan_deg": 186.8313,
      "arg_perigee_deg": 87.1082,
      "mean_anomaly_deg": 273.0016,
      "mean_motion_rev_day": 15.30198183
    }
  ]
}